NORAD_CAT_ID,OBJECT_NAME,OBJECT_TYPE,EPOCH,MEAN_MOTION,ECCENTRICITY,INCLINATION,RA_OF_ASC_NODE,ARG_OF_PERICENTER,MEAN_ANOMALY,BSTAR,MEAN_MOTION_DOT,MEAN_MOTION_DDOT,TLE_LINE0,TLE_LINE1,TLE_LINE2,SEMIMAJOR_AXIS,PERIOD,APOGEE,PERIGEE,DECAYED
52475.0,STARLINK-3882,PAYLOAD,2022-10-02 07:38:12,15.08841781,0.0001799,53.2179,290.2091,53.8162,306.2996,0.00021669,3.162e-05,0.0,0 STARLINK-3882,1 52475U 22049AA  22275.31820549  .00003162  00000-0  21669-3 0  9999,2 52475  53.2179 290.2091 0001799  53.8162 306.2996 15.08841781 23043,6917.875,95.437,540.984,538.495,0.0
52475.0,STARLINK-3882,PAYLOAD,2022-10-02 12:24:22,15.08841322,0.0001702,53.2176,289.317,48.8499,311.264,0.00016543,2.346e-05,0.0,0 STARLINK-3882,1 52475U 22049AA  22275.51692643  .00002346  00000-0  16543-3 0  9991,2 52475  53.2176 289.3170 0001702  48.8499 311.2640 15.08841322 22916,6917.876,95.437,540.919,538.564,0.0
52475.0,STARLINK-3882,PAYLOAD,2022-10-03 10:39:45,15.08857894,0.0001757,53.2181,285.1548,49.9118,310.2028,0.00079645,0.00012416,0.0,0 STARLINK-3882,1 52475U 22049AA  22276.44427683  .00012416  00000-0  79645-3 0  9995,2 52475  53.2181 285.1548 0001757  49.9118 310.2028 15.08857894 23219,6917.826,95.436,540.906,538.475,0.0
52475.0,STARLINK-3882,PAYLOAD,2022-10-03 12:15:08,15.08848553,0.0001785,53.2178,284.8563,48.8181,311.2965,0.00029853,4.467e-05,0.0,0 STARLINK-3882,1 52475U 22049AA  22276.51051869  .00004467  00000-0  29853-3 0  9995,2 52475  53.2178 284.8563 0001785  48.8181 311.2965 15.08848553 23221,6917.854,95.437,540.9540000000002,538.484,0.0
52475.0,STARLINK-3882,PAYLOAD,2022-10-04 10:30:31,15.08855697,0.00016,53.2173,280.6933,44.7254,315.3867,0.00025749,3.814e-05,0.0,0 STARLINK-3882,1 52475U 22049AA  22277.43786968  .00003814  00000-0  25749-3 0  9997,2 52475  53.2173 280.6933 0001600  44.7254 315.3867 15.08855697 23204,6917.831999999999,95.437,540.804,538.591,0.0
52475.0,STARLINK-3882,PAYLOAD,2022-10-04 16:52:04,15.08860037,0.0001607,53.2173,279.5039,45.9333,314.1791,0.00035813,5.419e-05,0.0,0 STARLINK-3882,1 52475U 22049AA  22277.70282683  .00005419  00000-0  35813-3 0  9998,2 52475  53.2173 279.5039 0001607  45.9333 314.1791 15.08860037 23247,6917.819,95.436,540.7959999999998,538.572,0.0
52475.0,STARLINK-3882,PAYLOAD,2022-10-05 05:35:09,15.08836942,0.0001665,53.2174,277.1245,45.9663,314.1466,-0.00017403,-3.056e-05,0.0,0 STARLINK-3882,1 52475U 22049AA  22278.23275459 -.00003056  00000-0 -17403-3 0  9992,2 52475  53.2174 277.1245 0001665  45.9663 314.1466 15.08836942 23484,6917.89,95.438,540.9069999999998,538.6030000000002,0.0
52475.0,STARLINK-3882,PAYLOAD,2022-10-05 07:10:33,15.08837022,0.0001658,53.2173,276.8272,45.5722,314.5405,-0.0001684,-2.967e-05,0.0,0 STARLINK-3882,1 52475U 22049AA  22278.29899430 -.00002967  00000-0 -16840-3 0  9993,2 52475  53.2173 276.8272 0001658  45.5722 314.5405 15.08837022 23334,6917.889,95.438,540.901,538.6080000000002,0.0
52475.0,STARLINK-3882,PAYLOAD,2022-10-05 18:18:15,15.08838924,0.0001696,53.2182,274.7458,47.1846,312.9289,1.7643e-05,-7e-08,0.0,0 STARLINK-3882,1 52475U 22049AA  22278.76267793 -.00000007  00000-0  17643-4 0  9991,2 52475  53.2182 274.7458 0001696  47.1846 312.9289 15.08838924 23406,6917.884,95.438,540.922,538.575,0.0
52475.0,STARLINK-3882,PAYLOAD,2022-10-06 11:47:29,15.08844532,0.0001595999999999,53.2181,271.4749,50.1526,309.9607,0.00012756,1.743e-05,0.0,0 STARLINK-3882,1 52475U 22049AA  22279.49131176  .00001743  00000-0  12756-3 0  9993,2 52475  53.2181 271.4749 0001596  50.1526 309.9607 15.08844532 23671,6917.8669999999975,95.437,540.836,538.627,0.0
52475.0,STARLINK-3882,PAYLOAD,2022-10-07 08:27:30,15.088371100000002,0.0001652,53.2183,267.6091,51.1858,308.9282,0.00016555,2.347e-05,0.0,0 STARLINK-3882,1 52475U 22049AA  22280.35243677  .00002347  00000-0  16555-3 0  9992,2 52475  53.2183 267.6091 0001652  51.1858 308.9282 15.08837110 23809,6917.889,95.438,540.8969999999998,538.611,0.0
52475.0,STARLINK-3882,PAYLOAD,2022-10-07 11:38:16,15.08837626,0.0001638,53.2183,267.0144,51.9393,308.1747,0.00014819,2.071e-05,0.0,0 STARLINK-3882,1 52475U 22049AA  22280.48491685  .00002071  00000-0  14819-3 0  9995,2 52475  53.2183 267.0144 0001638  51.9393 308.1747 15.08837626 23662,6917.888000000001,95.438,540.886,538.619,0.0
52475.0,STARLINK-3882,PAYLOAD,2022-10-07 16:24:25,15.08841703,0.0001639,53.2185,266.1226,51.8078,308.3062,0.00012944,1.773e-05,0.0,0 STARLINK-3882,1 52475U 22049AA  22280.68363400  .00001773  00000-0  12944-3 0  9995,2 52475  53.2185 266.1226 0001639  51.8078 308.3062 15.08841703 23691,6917.875,95.437,540.874,538.606,0.0
52475.0,STARLINK-3882,PAYLOAD,2022-10-08 11:29:04,15.08838341,0.000165,53.2192,262.5533,55.7605,304.3543,2.4076e-05,9.5e-07,0.0,0 STARLINK-3882,1 52475U 22049AA  22281.47852134  .00000095  00000-0  24076-4 0  9996,2 52475  53.2192 262.5533 0001650  55.7605 304.3543 15.08838341 23977,6917.885,95.438,540.8919999999998,538.609,0.0
52475.0,STARLINK-3882,PAYLOAD,2022-10-09 04:58:18,15.08844079,0.0001710999999999,53.2188,259.2823,48.7001,311.4139,9.1238e-05,1.164e-05,0.0,0 STARLINK-3882,1 52475U 22049AA  22282.20715342  .00001164  00000-0  91238-4 0  9999,2 52475  53.2188 259.2823 0001711  48.7001 311.4139 15.08844079 24085,6917.868,95.437,540.9169999999998,538.549,0.0
52475.0,STARLINK-3882,PAYLOAD,2022-10-09 16:06:00,15.08840265,0.0001506,53.2187,257.201,58.8282,301.2858,0.00011969,1.617e-05,0.0,0 STARLINK-3882,1 52475U 22049AA  22282.67083448  .00001617  00000-0  11969-3 0  9990,2 52475  53.2187 257.2010 0001506  58.8282 301.2858 15.08840265 23992,6917.88,95.438,540.786,538.703,0.0
52475.0,STARLINK-3882,PAYLOAD,2022-10-10 04:49:06,15.08828435,0.00014,53.2184,254.8225,47.6183,312.4927,2.1945e-05,6.1e-07,0.0,0 STARLINK-3882,1 52475U 22049AA  22283.20076428  .00000061  00000-0  21945-4 0  9998,2 52475  53.2184 254.8225 0001400  47.6183 312.4927 15.08828435 24233,6917.916,95.438,540.749,538.812,0.0
52475.0,STARLINK-3882,PAYLOAD,2022-10-10 09:35:15,15.08831732,0.0001533,53.2193,253.9315,45.9502,314.1616,3.1601e-05,2.15e-06,0.0,0 STARLINK-3882,1 52475U 22049AA  22283.39948358  .00000215  00000-0  31601-4 0  9999,2 52475  53.2193 253.9315 0001533  45.9502 314.1616 15.08831732 24100,6917.906,95.438,540.831,538.71,0.0
52475.0,STARLINK-3882,PAYLOAD,2022-10-11 03:04:28,15.08850392,0.0001501,53.2188,250.6612,42.6512,317.4597,4.3373e-05,4.03e-06,0.0,0 STARLINK-3882,1 52475U 22049AA  22284.12811210  .00000403  00000-0  43373-4 0  9995,2 52475  53.2188 250.6612 0001501  42.6512 317.4597 15.08850392 24374,6917.849,95.437,540.752,538.675,0.0
52475.0,STARLINK-3882,PAYLOAD,2022-10-11 07:50:38,15.08846873,0.0001501,53.2184,249.7692,45.9793,314.1323,2.7136e-05,1.44e-06,0.0,0 STARLINK-3882,1 52475U 22049AA  22284.32683467  .00000144  00000-0  27136-4 0  9999,2 52475  53.2184 249.7692 0001501  45.9793 314.1323 15.08846873 24240,6917.859,95.437,540.763,538.686,0.0
52475.0,STARLINK-3882,PAYLOAD,2022-10-12 04:30:40,15.08829815,0.0001431999999999,53.2179,245.9025,56.7558,303.3572,5.4454e-05,5.79e-06,0.0,0 STARLINK-3882,1 52475U 22049AA  22285.18796652  .00000579  00000-0  54454-4 0  9990,2 52475  53.2179 245.9025 0001432  56.7558 303.3572 15.08829815 24371,6917.9119999999975,95.438,540.7669999999998,538.786,0.0
52475.0,STARLINK-3882,PAYLOAD,2022-10-12 14:03:00,15.08820217,0.000151,53.2187,244.1197,57.0632,303.0505,-3.8483e-05,-9e-06,0.0,0 STARLINK-3882,1 52475U 22049AA  22285.58541956 -.00000900  00000-0 -38483-4 0  9993,2 52475  53.2187 244.1197 0001510  57.0632 303.0505 15.08820217 24432,6917.941,95.439,540.85,538.761,0.0
52475.0,STARLINK-3882,PAYLOAD,2022-10-13 04:21:28,15.0882963,0.0001525,53.218,241.4423,50.1616,309.951,-5.5369e-05,-1.169e-05,0.0,0 STARLINK-3882,1 52475U 22049AA  22286.18157815 -.00001169  00000-0 -55369-4 0  9997,2 52475  53.2180 241.4423 0001525  50.1616 309.9510 15.08829630 24685,6917.9119999999975,95.438,540.832,538.722,0.0
52475.0,STARLINK-3882,PAYLOAD,2022-10-13 07:32:14,15.08832934,0.0001511,53.2185,240.8475,55.0588,305.0546,-2.6584e-05,-7.11e-06,0.0,0 STARLINK-3882,1 52475U 22049AA  22286.31405605 -.00000711  00000-0 -26584-4 0  9994,2 52475  53.2185 240.8475 0001511  55.0588 305.0546 15.08832934 24549,6917.901999999999,95.438,540.812,538.722,0.0
52475.0,STARLINK-3882,PAYLOAD,2022-10-13 13:53:46,15.08837764,0.0001447,53.2184,239.6583,61.3006,298.8132,7.751600000000001e-05,9.46e-06,0.0,0 STARLINK-3882,1 52475U 22049AA  22286.57901112  .00000946  00000-0  77516-4 0  9995,2 52475  53.2184 239.6583 0001447  61.3006 298.8132 15.08837764 24745,6917.887,95.438,540.753,538.751,0.0
52475.0,STARLINK-3882,PAYLOAD,2022-10-14 07:23:01,15.088412599999998,0.0001604,53.2184,236.3876,62.4293,297.6862,0.0001885,2.713e-05,0.0,0 STARLINK-3882,1 52475U 22049AA  22287.30765095  .00002713  00000-0  18850-3 0  9994,2 52475  53.2184 236.3876 0001604  62.4293 297.6862 15.08841260 24696,6917.877,95.437,540.851,538.632,0.0
52475.0,STARLINK-3882,PAYLOAD,2022-10-15 02:27:38,15.08842453,0.000156,53.2185,232.8194,62.7748,297.3403,0.00020046,2.904e-05,0.0,0 STARLINK-3882,1 52475U 22049AA  22288.10253179  .00002904  00000-0  20046-3 0  9990,2 52475  53.2185 232.8194 0001560  62.7748 297.3403 15.08842453 24974,6917.873000000001,95.437,540.817,538.659,0.0
52475.0,STARLINK-3882,PAYLOAD,2022-10-15 13:35:20,15.08841966,0.0001694,53.2172,230.7376,59.8819,300.2341,0.00011583,1.556e-05,0.0,0 STARLINK-3882,1 52475U 22049AA  22288.56621346  .00001556  00000-0  11583-3 0  9993,2 52475  53.2172 230.7376 0001694  59.8819 300.2341 15.08841966 24886,6917.874,95.437,540.911,538.567,0.0
52475.0,STARLINK-3882,PAYLOAD,2022-10-16 05:29:11,15.08850235,0.0001495,53.2182,227.7655,54.297,305.8161,8.4574e-05,1.059e-05,0.0,0 STARLINK-3882,1 52475U 22049AA  22289.22860443  .00001059  00000-0  84574-4 0  9999,2 52475  53.2182 227.7655 0001495  54.2970 305.8161 15.08850235 25149,6917.849,95.437,540.748,538.68,0.0
